ONEWEB-0570             
1 55149U 23004K   26142.25458117  .00000017  00000+0  11036-4 0  9993
2 55149  87.9160 340.6318 0001980 101.0899 259.0456 13.18687909166273
ONEWEB-0571             
1 55150U 23004L   26142.24783522 -.00000044  00000+0 -14481-3 0  9993
2 55150  87.9161 340.6323 0000862 122.1697 237.9519 13.18687858166289
ONEWEB-0572             
1 55151U 23004M   26142.09354566  .00000002  00000+0 -28918-4 0  9993
2 55151  87.9154  11.0548 0001641  87.9504 272.1815 13.17650517164044
ONEWEB-0573             
1 55152U 23004N   26142.24108802 -.00000016  00000+0 -73762-4 0  9994
2 55152  87.9162 340.6349 0001131 110.2929 249.8325 13.18686410166275
ONEWEB-0588             
1 55153U 23004P   26142.08258785  .00000033  00000+0  52102-4 0  9995
2 55153  87.9158 340.6671 0001908 104.5617 255.5727 13.18687359166252
ONEWEB-0598             
1 55154U 23004Q   26142.06676250  .00000212  00000+0  56180-3 0  9993
2 55154  87.8907  26.2661 0001136  79.0114 281.1142 13.11417202162478
ONEWEB-0599             
1 55155U 23004R   26142.13066652  .00000087  00000+0  19100-3 0  9992
2 55155  87.9155  11.0459 0001730  76.8442 283.2883 13.17651268164050
ONEWEB-0614             
1 55156U 23004S   26142.06167963  .00000389  00000+0  10619-2 0  9992
2 55156  87.8907  26.2755 0002007  85.7229 274.4128 13.11414641162410
ONEWEB-0616             
1 55157U 23004T   26142.09693237  .00000028  00000+0  38279-4 0  9998
2 55157  87.9158  11.0555 0001998  55.3502 304.7818 13.17648876164268
ONEWEB-0617             
1 55158U 23004U   26142.12610987  .00000560  00000+0  15453-2 0  9992
2 55158  87.8914  26.2523 0002025  93.5536 266.5823 13.11416440162447
ONEWEB-0618             
1 55159U 23004V   26142.13281373  .00004417  00000+0  24853-3 0  9997
2 55159  86.9114 188.2082 0013837  42.0785 318.1515 15.12916735178328
ONEWEB-0619             
1 55160U 23004W   26142.12899406 -.00000043  00000+0 -14479-3 0  9996
2 55160  87.9166  11.0279 0002306  82.6104 277.5289 13.17649233164165
ONEWEB-0620             
1 55161U 23004X   26142.12102462  .00000489  00000+0  13442-2 0  9996
2 55161  87.8911  26.2634 0001605  86.9992 273.1320 13.11417272162413
ONEWEB-0621             
1 55162U 23004Y   26142.14813861 -.00000041  00000+0 -15055-3 0  9990
2 55162  87.8916  26.2445 0002014  85.6956 274.4402 13.11414023162393
ONEWEB-0622             
1 55163U 23004Z   26142.07692530 -.00000275  00000+0 -81307-3 0  9993
2 55163  87.8920  26.2608 0002051 103.2708 256.8649 13.11413177162377
ONEWEB-0623             
1 55164U 23004AA  26142.12391419  .00000068  00000+0  14143-3 0  9994
2 55164  87.9154  11.0624 0002502  94.9657 265.1760 13.17651136164158
ONEWEB-0624             
1 55165U 23004AB  26142.28382535  .00000267  00000+0  70190-3 0  9996
2 55165  87.8958 355.7414 0001888  88.2526 271.8819 13.12926515164679
ONEWEB-0625             
1 55166U 23004AC  26142.11380761 -.00000009  00000+0 -55409-4 0  9991
2 55166  87.9157  11.0592 0001885  79.1755 280.9589 13.17649663164149
ONEWEB-0626             
1 55167U 23004AD  26142.10366437  .00000001  00000+0 -31633-4 0  9999
2 55167  87.9157  11.0611 0001387  87.1167 273.0124 13.17650287164147
ONEWEB-0627             
1 55168U 23004AE  26142.09185551  .00000023  00000+0  26711-4 0  9998
2 55168  87.9158  11.0637 0002266  92.4179 267.7212 13.17650364164140
ONEWEB-0628             
1 55169U 23004AF  26142.10321766  .00000120  00000+0  29796-3 0  9994
2 55169  87.8960 355.8400 0002444  93.0929 267.0479 13.12444911164610
ONEWEB-0629             
1 55170U 23004AG  26142.14333622 -.00000104  00000+0 -30017-3 0  9996
2 55170  87.9153  11.0498 0002176  82.1904 277.9474 13.17648895164155
ONEWEB-0631             
1 55171U 23004AH  26142.07584825  .00000033  00000+0  49888-4 0  9998
2 55171  87.9168 340.6319 0001623 103.9331 256.1982 13.18687772166239
ONEWEB-0709             
1 55172U 23004AJ  26142.11085161  .00000079  00000+0  18832-3 0  9997
2 55172  87.8910  26.2676 0000943  81.4805 278.6430 13.11418751162456
ONEWEB-0710             
1 55173U 23004AK  26142.08174542  .00000089  00000+0  19522-3 0  9994
2 55173  87.9155  11.0575 0001940  89.3302 270.8051 13.17649370164146
ONEWEB-0711             
1 55174U 23004AL  26142.08203225 -.00000440  00000+0 -12773-2 0  9999
2 55174  87.8909  26.2598 0002304  97.4688 262.6702 13.11414390162414
ONEWEB-0713             
1 55175U 23004AM  26142.10066949 -.00000261  00000+0 -77208-3 0  9999
2 55175  87.8913  26.2576 0002051  91.7175 268.4187 13.11417919162403
ONEWEB-0715             
1 55176U 23004AN  26142.09557915 -.00000424  00000+0 -12310-2 0  9999
2 55176  87.8919  26.2592 0001240  97.2436 262.8833 13.11417373162442
ONEWEB-0716             
1 55177U 23004AP  26142.07499515  .00000037  00000+0  61991-4 0  9998
2 55177  87.9158  11.0610 0001842  76.6790 283.4546 13.17649045164142
ONEWEB-0717             
1 55178U 23004AQ  26142.13404388  .00000047  00000+0  88673-4 0  9997
2 55178  87.9164  11.0344 0002194 100.7526 259.3853 13.17650715164207
