OBJECT_NAME,OBJECT_ID,EPOCH,MEAN_MOTION,ECCENTRICITY,INCLINATION,RA_OF_ASC_NODE,ARG_OF_PERICENTER,MEAN_ANOMALY,EPHEMERIS_TYPE,CLASSIFICATION_TYPE,NORAD_CAT_ID,ELEMENT_SET_NO,REV_AT_EPOCH,BSTAR,MEAN_MOTION_DOT,MEAN_MOTION_DDOT
ONEWEB-0570,2023-004K,2026-05-22T06:06:35.813088,13.18687909,.00019808,87.9160,340.6318,101.0899,259.0456,0,U,55149,999,16627,.11036085E-4,.17E-6,0
ONEWEB-0571,2023-004L,2026-05-22T05:56:52.963008,13.18687858,.00008625,87.9161,340.6323,122.1697,237.9519,0,U,55150,999,16628,-.14481161E-3,-.44E-6,0
ONEWEB-0572,2023-004M,2026-05-22T02:14:42.345024,13.17650517,.00016417,87.9154,11.0548,87.9504,272.1815,0,U,55151,999,16404,-.28918048E-4,.2E-7,0
ONEWEB-0573,2023-004N,2026-05-22T05:47:10.004928,13.18686410,.00011313,87.9162,340.6349,110.2929,249.8325,0,U,55152,999,16627,-.73762463E-4,-.16E-6,0
ONEWEB-0588,2023-004P,2026-05-22T01:58:55.590240,13.18687359,.00019082,87.9158,340.6671,104.5617,255.5727,0,U,55153,999,16625,.52101581E-4,.33E-6,0
ONEWEB-0598,2023-004Q,2026-05-22T01:36:08.280000,13.11417202,.00011363,87.8907,26.2661,79.0114,281.1142,0,U,55154,999,16247,.56180264E-3,.212E-5,0
ONEWEB-0599,2023-004R,2026-05-22T03:08:09.587328,13.17651268,.00017306,87.9155,11.0459,76.8442,283.2883,0,U,55155,999,16405,.19099657E-3,.87E-6,0
ONEWEB-0614,2023-004S,2026-05-22T01:28:49.120032,13.11414641,.00020074,87.8907,26.2755,85.7229,274.4128,0,U,55156,999,16241,.10619312E-2,.389E-5,0
ONEWEB-0616,2023-004T,2026-05-22T02:19:34.956768,13.17648876,.00019987,87.9158,11.0555,55.3502,304.7818,0,U,55157,999,16426,.38278967E-4,.28E-6,0
ONEWEB-0617,2023-004U,2026-05-22T03:01:35.892768,13.11416440,.00020255,87.8914,26.2523,93.5536,266.5823,0,U,55158,999,16244,.15452699E-2,.56E-5,0
ONEWEB-0618,2023-004V,2026-05-22T03:11:15.106272,15.12916735,.00138373,86.9114,188.2082,42.0785,318.1515,0,U,55159,999,17832,.24853158E-3,.4417E-4,0
ONEWEB-0619,2023-004W,2026-05-22T03:05:45.086784,13.17649233,.00023062,87.9166,11.0279,82.6104,277.5289,0,U,55160,999,16416,-.1447869E-3,-.43E-6,0
ONEWEB-0620,2023-004X,2026-05-22T02:54:16.527168,13.11417272,.00016055,87.8911,26.2634,86.9992,273.1320,0,U,55161,999,16241,.13442207E-2,.489E-5,0
ONEWEB-0621,2023-004Y,2026-05-22T03:33:19.175904,13.11414023,.00020148,87.8916,26.2445,85.6956,274.4402,0,U,55162,999,16239,-.15055489E-3,-.41E-6,0
ONEWEB-0622,2023-004Z,2026-05-22T01:50:46.345920,13.11413177,.00020515,87.8920,26.2608,103.2708,256.8649,0,U,55163,999,16237,-.813072E-3,-.275E-5,0
ONEWEB-0623,2023-004AA,2026-05-22T02:58:26.186016,13.17651136,.00025028,87.9154,11.0624,94.9657,265.1760,0,U,55164,999,16415,.14143297E-3,.68E-6,0
ONEWEB-0624,2023-004AB,2026-05-22T06:48:42.510240,13.12926515,.00018884,87.8958,355.7414,88.2526,271.8819,0,U,55165,999,16467,.70189531E-3,.267E-5,0
ONEWEB-0625,2023-004AC,2026-05-22T02:43:52.977504,13.17649663,.00018853,87.9157,11.0592,79.1755,280.9589,0,U,55166,999,16414,-.55409195E-4,-.9E-7,0
ONEWEB-0626,2023-004AD,2026-05-22T02:29:16.601568,13.17650287,.00013878,87.9157,11.0611,87.1167,273.0124,0,U,55167,999,16414,-.31632755E-4,.1E-7,0
ONEWEB-0627,2023-004AE,2026-05-22T02:12:16.316064,13.17650364,.00022664,87.9158,11.0637,92.4179,267.7212,0,U,55168,999,16414,.26710501E-4,.23E-6,0
ONEWEB-0628,2023-004AF,2026-05-22T02:28:38.005824,13.12444911,.00024443,87.8960,355.8400,93.0929,267.0479,0,U,55169,999,16461,.2979638E-3,.12E-5,0
ONEWEB-0629,2023-004AG,2026-05-22T03:26:24.249408,13.17648895,.00021765,87.9153,11.0498,82.1904,277.9474,0,U,55170,999,16415,-.30017307E-3,-.104E-5,0
ONEWEB-0631,2023-004AH,2026-05-22T01:49:13.288800,13.18687772,.00016236,87.9168,340.6319,103.9331,256.1982,0,U,55171,999,16623,.49887536E-4,.33E-6,0
ONEWEB-0709,2023-004AJ,2026-05-22T02:39:37.579104,13.11418751,.00009435,87.8910,26.2676,81.4805,278.6430,0,U,55172,999,16245,.18832162E-3,.79E-6,0
ONEWEB-0710,2023-004AK,2026-05-22T01:57:42.804288,13.17649370,.00019402,87.9155,11.0575,89.3302,270.8051,0,U,55173,999,16414,.19522348E-3,.89E-6,0
ONEWEB-0711,2023-004AL,2026-05-22T01:58:07.586400,13.11414390,.00023041,87.8909,26.2598,97.4688,262.6702,0,U,55174,999,16241,-.12772969E-2,-.44E-5,0
ONEWEB-0713,2023-004AM,2026-05-22T02:24:57.843936,13.11417919,.00020512,87.8913,26.2576,91.7175,268.4187,0,U,55175,999,16240,-.77207768E-3,-.261E-5,0
ONEWEB-0715,2023-004AN,2026-05-22T02:17:38.038560,13.11417373,.00012405,87.8919,26.2592,97.2436,262.8833,0,U,55176,999,16244,-.12309603E-2,-.424E-5,0
ONEWEB-0716,2023-004AP,2026-05-22T01:47:59.580960,13.17649045,.00018427,87.9158,11.0610,76.6790,283.4546,0,U,55177,999,16414,.61991489E-4,.37E-6,0
ONEWEB-0717,2023-004AQ,2026-05-22T03:13:01.391232,13.17650715,.00021946,87.9164,11.0344,100.7526,259.3853,0,U,55178,999,16420,.88673185E-4,.47E-6,0
